     3.04           N: GNSS NAV DATA    E: GALILEO          RINEX VERSION / TYPE
Spider V7.8.3.9486  BYGEO               20240318 004201 UTC PGM / RUN BY / DATE
GAL    1.0025D+02 -3.1641D-01  3.0945D-02                   IONOSPHERIC CORR
GAUT  8.3819031715D-09-2.664535259D-15      0 2306          TIME SYSTEM CORR
GAGP  7.0722308010D-09 2.753353101D-14  86400 2306          TIME SYSTEM CORR
    18    18  1929     7                                    LEAP SECONDS
                                                            END OF HEADER
E08 2024 03 17 14 50 00-2.403459511697D-04-6.011191544530D-12 0.000000000000D+00
     8.900000000000D+01-6.659375000000D+01 3.035126372453D-09 2.287783305963D+00
    -3.144145011902D-06 2.610861556605D-04 8.437782526016D-06 5.440609966278D+03
     5.340000000000D+04 0.000000000000D+00-8.926961356915D-01-2.421438694000D-08
     9.665495755952D-01 1.578125000000D+02-5.444315551081D-01-5.440940922743D-09
     3.375140722461D-10 5.170000000000D+02 2.306000000000D+03 0.000000000000D+00
     3.120000000000D+00 0.000000000000D+00-5.122274160385D-09-6.286427378654D-09
     5.406400000000D+04
E07 2024 03 17 14 50 00-1.094227773137D-04-2.160049916711D-12 0.000000000000D+00
     8.900000000000D+01-6.896875000000D+01 3.110486757052D-09 1.897116984046D+00
    -3.345310688019D-06 3.368968609720D-04 8.745118975639D-06 5.440610284805D+03
     5.340000000000D+04-5.401670932770D-08-8.922383666808D-01-2.421438694000D-08
     9.607171947788D-01 1.516250000000D+02-9.466306761331D-01-5.453441443440D-09
     3.514432078688D-10 5.170000000000D+02 2.306000000000D+03 0.000000000000D+00
     3.120000000000D+00 0.000000000000D+00 3.958120942116D-09 3.958120942116D-09
     5.406400000000D+04
E26 2024 03 17 14 50 00 3.990635741502D-04 1.098499069485D-11 0.000000000000D+00
     8.900000000000D+01-3.562500000000D+00 2.605822890800D-09 3.064591034460D+00
    -2.719461917877D-07 2.282180357724D-04 2.311542630196D-06 5.440611360550D+03
     5.340000000000D+04-4.097819328308D-08-2.985140957137D+00-4.470348358154D-08
     9.937343707624D-01 3.090000000000D+02-8.240872585650D-01-5.627020102259D-09
    -7.500312176889D-11 5.170000000000D+02 2.306000000000D+03 0.000000000000D+00
     3.120000000000D+00 0.000000000000D+00-4.889443516731D-09-5.820766091347D-09
     5.406400000000D+04
E33 2024 03 17 14 50 00 9.137729648501D-06 4.547473508865D-13 0.000000000000D+00
     8.900000000000D+01 3.812500000000D+00 2.485817773845D-09 2.513612057826D+00
     1.732259988785D-07 1.365751959383D-04 2.326443791389D-06 5.440616697311D+03
     5.340000000000D+04-5.401670932770D-08-2.985508658671D+00-4.842877388000D-08
     1.000434232741D+00 3.110312500000D+02-1.011576368353D+00-5.559160132762D-09
    -6.464555279972D-11 2.580000000000D+02 2.306000000000D+03 0.000000000000D+00
     3.120000000000D+00 0.000000000000D+00-3.958120942116D-09 0.000000000000D+00
     5.410000000000D+04
E08 2024 03 17 14 50 00-2.403457183391D-04-6.011191544530D-12 0.000000000000D+00
     8.900000000000D+01-6.659375000000D+01 3.035126372453D-09 2.287783305963D+00
    -3.144145011902D-06 2.610861556605D-04 8.437782526016D-06 5.440609966278D+03
     5.340000000000D+04 0.000000000000D+00-8.926961356915D-01-2.421438694000D-08
     9.665495755952D-01 1.578125000000D+02-5.444315551081D-01-5.440940922743D-09
     3.375140722461D-10 2.580000000000D+02 2.306000000000D+03 0.000000000000D+00
     3.120000000000D+00 0.000000000000D+00-5.587935447693D-09 0.000000000000D+00
     5.410000000000D+04
E07 2024 03 17 14 50 00-1.094236504287D-04-2.145839061996D-12 0.000000000000D+00
     8.900000000000D+01-6.896875000000D+01 3.110486757052D-09 1.897116984046D+00
    -3.345310688019D-06 3.368968609720D-04 8.745118975639D-06 5.440610284805D+03
     5.340000000000D+04-5.401670932770D-08-8.922383666808D-01-2.421438694000D-08
     9.607171947788D-01 1.516250000000D+02-9.466306761331D-01-5.453441443440D-09
     3.514432078688D-10 2.580000000000D+02 2.306000000000D+03 0.000000000000D+00
     3.120000000000D+00 0.000000000000D+00 3.492459654808D-09 0.000000000000D+00
     5.410000000000D+04
E12 2024 03 17 14 50 00-9.526142966934D-04-1.708144736767D-11 0.000000000000D+00
     8.900000000000D+01 1.725000000000D+01 2.617251970705D-09 5.940123635707D-01
     8.214265108109D-07 4.879670450464D-04 1.683831214905D-06 5.440612346649D+03
     5.340000000000D+04-6.332993507385D-08-2.984205892085D+00 4.470348358154D-08
     9.973205271803D-01 3.212187500000D+02 8.297616047300D-02-5.610233688752D-09
    -1.035757417334D-11 2.580000000000D+02 2.306000000000D+03 0.000000000000D+00
     3.120000000000D+00 0.000000000000D+00-1.117587089539D-08 0.000000000000D+00
     5.410000000000D+04
E26 2024 03 17 14 50 00 3.990638069808D-04 1.098499069485D-11 0.000000000000D+00
     8.900000000000D+01-3.562500000000D+00 2.605822890800D-09 3.064591034460D+00
    -2.719461917877D-07 2.282180357724D-04 2.311542630196D-06 5.440611360550D+03
     5.340000000000D+04-4.097819328308D-08-2.985140957137D+00-4.470348358154D-08
     9.937343707624D-01 3.090000000000D+02-8.240872585650D-01-5.627020102259D-09
    -7.500312176889D-11 2.580000000000D+02 2.306000000000D+03 0.000000000000D+00
     3.120000000000D+00 0.000000000000D+00-5.355104804039D-09 0.000000000000D+00
     5.410000000000D+04
E31 2024 03 17 14 50 00-1.848739339039D-05-1.008970684779D-12 0.000000000000D+00
     8.900000000000D+01 7.409375000000D+01 3.191204411834D-09 2.306534262833D+00
     3.391876816750D-06 1.008907565847D-04 8.050352334976D-06 5.440608131409D+03
     5.340000000000D+04-3.539025783539D-08 1.206399305911D+00-4.470348358154D-08
     9.663799941314D-01 1.709375000000D+02 4.648299355640D-01-5.401653571982D-09
    -3.775157131347D-10 2.580000000000D+02 2.306000000000D+03 0.000000000000D+00
     3.120000000000D+00 0.000000000000D+00 3.492459654808D-09 0.000000000000D+00
     5.410000000000D+04
E25 2024 03 17 14 50 00 2.224580384791D-06 3.836930773105D-13 0.000000000000D+00
     8.900000000000D+01 5.471875000000D+01 3.189775776846D-09 5.184352345885D-01
     2.680346369743D-06 1.496109180152D-04 8.327886462212D-06 5.440607009888D+03
     5.340000000000D+04-3.352761268616D-08 1.206462471787D+00 3.725290298462D-09
     9.664104462342D-01 1.644687500000D+02 6.878662606194D-01-5.452012812503D-09
    -3.614436250299D-10 5.170000000000D+02 2.306000000000D+03 0.000000000000D+00
     3.120000000000D+00 0.000000000000D+00 2.561137080193D-09 2.328306436539D-09
     5.445400000000D+04
E10 2024 03 17 14 50 00-6.100037717260D-04-3.026912054338D-12 0.000000000000D+00
     8.900000000000D+01 2.306250000000D+01 2.577607460807D-09-6.744602022261D-01
     1.069158315659D-06 1.410169061273D-04 1.788139343262D-06 5.440612514496D+03
     5.340000000000D+04-2.793967723846D-08-2.987332114373D+00 3.539025783539D-08
     1.000271910277D+00 3.184687500000D+02 9.767587117953D-01-5.613090950626D-09
    -3.571577278719D-12 5.170000000000D+02 2.306000000000D+03 0.000000000000D+00
     3.120000000000D+00 0.000000000000D+00-2.328306436539D-10 0.000000000000D+00
     5.445400000000D+04
E25 2024 03 17 14 50 00 2.223998308182D-06 4.121147867409D-13 0.000000000000D+00
     8.900000000000D+01 5.471875000000D+01 3.189775776846D-09 5.184352345885D-01
     2.680346369743D-06 1.496109180152D-04 8.327886462212D-06 5.440607009888D+03
     5.340000000000D+04-3.352761268616D-08 1.206462471787D+00 3.725290298462D-09
     9.664104462342D-01 1.644687500000D+02 6.878662606194D-01-5.452012812503D-09
    -3.614436250299D-10 2.580000000000D+02 2.306000000000D+03 0.000000000000D+00
     3.120000000000D+00 0.000000000000D+00 2.095475792885D-09 0.000000000000D+00
     5.445000000000D+04
E10 2024 03 17 14 50 00-6.100048194639D-04-3.012701199623D-12 0.000000000000D+00
     8.900000000000D+01 2.306250000000D+01 2.577607460807D-09-6.744602022261D-01
     1.069158315659D-06 1.410169061273D-04 1.788139343262D-06 5.440612514496D+03
     5.340000000000D+04-2.793967723846D-08-2.987332114373D+00 3.539025783539D-08
     1.000271910277D+00 3.184687500000D+02 9.767587117953D-01-5.613090950626D-09
    -3.571577278719D-12 2.580000000000D+02 2.306000000000D+03 0.000000000000D+00
     3.120000000000D+00 0.000000000000D+00-6.984919309616D-10 0.000000000000D+00
     5.445000000000D+04
E25 2024 03 17 15 00 00 2.224755007774D-06 3.836930773105D-13 0.000000000000D+00
     9.000000000000D+01 5.487500000000D+01 3.192633046822D-09 5.930169619254D-01
     2.680346369743D-06 1.495986944064D-04 8.326023817062D-06 5.440606946945D+03
     5.400000000000D+04-3.539025783539D-08 1.206459191925D+00 5.587935447693D-09
     9.664102253335D-01 1.646875000000D+02 6.876701681542D-01-5.451655654769D-09
    -3.603721487888D-10 5.170000000000D+02 2.306000000000D+03 0.000000000000D+00
     3.120000000000D+00 0.000000000000D+00 2.328306436539D-09 2.095475792885D-09
     5.466400000000D+04
E31 2024 03 17 15 00 00-1.848721876740D-05-1.008970684779D-12 0.000000000000D+00
     9.000000000000D+01 7.515625000000D+01 3.185846919607D-09 2.380665055912D+00
     3.434717655182D-06 1.006865641102D-04 7.996335625648D-06 5.440608535767D+03
     5.400000000000D+04-3.725290298462D-08 1.206396068473D+00-4.656612873077D-08
     9.663797527499D-01 1.722500000000D+02 4.650849353515D-01-5.403796518387D-09
    -3.768014233962D-10 5.170000000000D+02 2.306000000000D+03 0.000000000000D+00
     3.120000000000D+00 0.000000000000D+00 3.725290298462D-09 3.725290298462D-09
     5.466400000000D+04
